{
  "norad_id": 53621,
  "name": "STARLINK-4608",
  "history": [
    {
      "epoch": "2026-03-28T10:08:18.727872Z",
      "apogee_km": 540.7017286756136,
      "perigee_km": 538.8787164939185,
      "latitude_deg": 6.464265026277046e-06,
      "longitude_deg": 172.06006140791393,
      "height_km": 540.6436561338041,
      "semi_major_axis_km": 6917.927222584766,
      "eccentricity": 0.00013176,
      "inclination_deg": 53.216,
      "raan_deg": 149.9812,
      "arg_perigee_deg": 87.3478,
      "mean_anomaly_deg": 272.7665,
      "mean_motion_rev_day": 15.08824678
    }
  ]
}