{"fetched_at":"2026-03-30T13:17:50Z","count":15418,"tles":[{"name":"STARLINK-4608","line1":"1 53621U 22104AK  26087.42243898  .00002435  00000+0  17106-3 0  9990","line2":"2 53621  53.2160 149.9812 0001317  87.3478 272.7665 15.08824678198461","category":"Starlink"}]}